start=new Date('2022-10-29T00:00:00.000Z').valueOf();
sats=[{"CENTER_NAME":"EARTH","OBJECT_NAME":"STARLINK-1444","MEAN_ELEMENT_THEORY":"SGP4","SEMIMAJOR_AXIS":"6925.313","TLE_LINE1":"1 45661U 20035E   22301.82642207 -.00000390  00000-0 -72999-5 0  9996","FILE":"3637111","LAUNCH_DATE":"2020-06-04","APOAPSIS":"548.191","MEAN_MOTION_DOT":"-0.00000390","RA_OF_ASC_NODE":"178.7230","SITE":"AFETR","TIME_SYSTEM":"UTC","COUNTRY_CODE":"US","REV_AT_EPOCH":"13366","EPHEMERIS_TYPE":"0","MEAN_ANOMALY":"268.3046","EPOCH":"2022-10-28T19:50:02.866848","NORAD_CAT_ID":"45661","ARG_OF_PERICENTER":"91.8110","MEAN_MOTION":"15.06411505","CLASSIFICATION_TYPE":"U","OBJECT_TYPE":"PAYLOAD","PERIOD":"95.591","PERIAPSIS":"546.165","ELEMENT_SET_NO":"999","BSTAR":"-0.00000729990000","INCLINATION":"53.0524","DECAY_DATE":null,"GP_ID":"216404898","ECCENTRICITY":"0.00014630","TLE_LINE2":"2 45661  53.0524 178.7230 0001463  91.8110 268.3046 15.06411505133661","MEAN_MOTION_DDOT":"0.0000000000000","RCS_SIZE":"LARGE","OBJECT_ID":"2020-035E","REF_FRAME":"TEME"},{"PERIOD":"95.592","OBJECT_TYPE":"PAYLOAD","CLASSIFICATION_TYPE":"U","MEAN_MOTION":"15.06401978","MEAN_ANOMALY":"281.1495","EPOCH":"2022-10-28T20:11:16.149696","NORAD_CAT_ID":"45662","ARG_OF_PERICENTER":"78.9685","REV_AT_EPOCH":"13366","EPHEMERIS_TYPE":"0","REF_FRAME":"TEME","OBJECT_ID":"2020-035F","RCS_SIZE":"LARGE","MEAN_MOTION_DDOT":"0.0000000000000","TLE_LINE2":"2 45662  53.0556 178.6516 0001699  78.9685 281.1495 15.06401978133661","ECCENTRICITY":"0.00016990","GP_ID":"216405147","DECAY_DATE":null,"BSTAR":"0.00005542800000","INCLINATION":"53.0556","PERIAPSIS":"546.031","ELEMENT_SET_NO":"999","RA_OF_ASC_NODE":"178.6516","MEAN_MOTION_DOT":"0.00000544","APOAPSIS":"548.384","LAUNCH_DATE":"2020-06-04","FILE":"3637111","TLE_LINE1":"1 45662U 20035F   22301.84115914  .00000544  00000-0  55428-4 0  9995","SEMIMAJOR_AXIS":"6925.342","MEAN_ELEMENT_THEORY":"SGP4","OBJECT_NAME":"STARLINK-1445","CENTER_NAME":"EARTH","COUNTRY_CODE":"US","TIME_SYSTEM":"UTC","SITE":"AFETR"},{"SITE":"AFETR","TIME_SYSTEM":"UTC","COUNTRY_CODE":"US","CENTER_NAME":"EARTH","OBJECT_NAME":"STARLINK-1446","MEAN_ELEMENT_THEORY":"SGP4","SEMIMAJOR_AXIS":"6925.357","TLE_LINE1":"1 45663U 20035G   22301.84485997  .00007179  00000-0  50037-3 0  9998","FILE":"3637111","LAUNCH_DATE":"2020-06-04","APOAPSIS":"548.225","MEAN_MOTION_DOT":"0.00007179","RA_OF_ASC_NODE":"178.6176","PERIAPSIS":"546.218","ELEMENT_SET_NO":"999","BSTAR":"0.00050037000000","INCLINATION":"53.0529","DECAY_DATE":null,"GP_ID":"216405399","ECCENTRICITY":"0.00014490","MEAN_MOTION_DDOT":"0.0000000000000","TLE_LINE2":"2 45663  53.0529 178.6176 0001449 109.2708 250.8438 15.06397314133669","RCS_SIZE":"LARGE","OBJECT_ID":"2020-035G","REF_FRAME":"TEME","EPHEMERIS_TYPE":"0","REV_AT_EPOCH":"13366","EPOCH":"2022-10-28T20:16:35.901408","ARG_OF_PERICENTER":"109.2708","MEAN_ANOMALY":"250.8438","NORAD_CAT_ID":"45663","MEAN_MOTION":"15.06397314","CLASSIFICATION_TYPE":"U","OBJECT_TYPE":"PAYLOAD","PERIOD":"95.592"},{"CENTER_NAME":"EARTH","OBJECT_NAME":"STARLINK-1448","MEAN_ELEMENT_THEORY":"SGP4","SEMIMAJOR_AXIS":"6925.309","TLE_LINE1":"1 45665U 20035J   22301.81166622  .00001218  00000-0  10061-3 0  9999","FILE":"3637111","LAUNCH_DATE":"2020-06-04","APOAPSIS":"548.280","MEAN_MOTION_DOT":"0.00001218","RA_OF_ASC_NODE":"178.7875","SITE":"AFETR","TIME_SYSTEM":"UTC","COUNTRY_CODE":"US","EPHEMERIS_TYPE":"0","REV_AT_EPOCH":"13365","EPOCH":"2022-10-28T19:28:47.961408","ARG_OF_PERICENTER":"98.4260","MEAN_ANOMALY":"261.6910","NORAD_CAT_ID":"45665","CLASSIFICATION_TYPE":"U","MEAN_MOTION":"15.06413021","OBJECT_TYPE":"PAYLOAD","PERIOD":"95.591","ELEMENT_SET_NO":"999","PERIAPSIS":"546.067","INCLINATION":"53.0555","BSTAR":"0.00010061000000","GP_ID":"216406148","DECAY_DATE":null,"ECCENTRICITY":"0.00015980","TLE_LINE2":"2 45665  53.0555 178.7875 0001598  98.4260 261.6910 15.06413021133652","MEAN_MOTION_DDOT":"0.0000000000000","RCS_SIZE":"LARGE","OBJECT_ID":"2020-035J","REF_FRAME":"TEME"},{"DECAY_DATE":null,"GP_ID":"216404400","INCLINATION":"53.0537","BSTAR":"0.00027888000000","ELEMENT_SET_NO":"999","PERIAPSIS":"546.218","RCS_SIZE":"LARGE","REF_FRAME":"TEME","OBJECT_ID":"2020-035K","ECCENTRICITY":"0.00014090","TLE_LINE2":"2 45666  53.0537 178.7412 0001409  91.2373 268.8777 15.06406475133652","MEAN_MOTION_DDOT":"0.0000000000000","ARG_OF_PERICENTER":"91.2373","EPOCH":"2022-10-28T19:34:06.805920","MEAN_ANOMALY":"268.8777","NORAD_CAT_ID":"45666","EPHEMERIS_TYPE":"0","REV_AT_EPOCH":"13365","PERIOD":"95.592","MEAN_MOTION":"15.06406475","CLASSIFICATION_TYPE":"U","OBJECT_TYPE":"PAYLOAD","TIME_SYSTEM":"UTC","SITE":"AFETR","COUNTRY_CODE":"US","SEMIMAJOR_AXIS":"6925.329","MEAN_ELEMENT_THEORY":"SGP4","OBJECT_NAME":"STARLINK-1449","CENTER_NAME":"EARTH","APOAPSIS":"548.169","RA_OF_ASC_NODE":"178.7412","MEAN_MOTION_DOT":"0.00003876","FILE":"3637111","TLE_LINE1":"1 45666U 20035K   22301.81535655  .00003876  00000-0  27888-3 0  9993","LAUNCH_DATE":"2020-06-04"},{"OBJECT_NAME":"STARLINK-1450","MEAN_ELEMENT_THEORY":"SGP4","SEMIMAJOR_AXIS":"6925.303","CENTER_NAME":"EARTH","MEAN_MOTION_DOT":"0.00001322","RA_OF_ASC_NODE":"178.7810","APOAPSIS":"548.266","LAUNCH_DATE":"2020-06-04","TLE_LINE1":"1 45667U 20035L   22301.81810092  .00001322  00000-0  10758-3 0  9997","FILE":"3637111","SITE":"AFETR","TIME_SYSTEM":"UTC","COUNTRY_CODE":"US","ARG_OF_PERICENTER":"88.7638","EPOCH":"2022-10-28T19:38:03.919488","NORAD_CAT_ID":"45667","MEAN_ANOMALY":"271.3533","EPHEMERIS_TYPE":"0","REV_AT_EPOCH":"13365","PERIOD":"95.591","OBJECT_TYPE":"PAYLOAD","CLASSIFICATION_TYPE":"U","MEAN_MOTION":"15.06414766","GP_ID":"216404650","DECAY_DATE":null,"ELEMENT_SET_NO":"999","PERIAPSIS":"546.071","BSTAR":"0.00010758000000","INCLINATION":"53.0552","OBJECT_ID":"2020-035L","REF_FRAME":"TEME","RCS_SIZE":"LARGE","TLE_LINE2":"2 45667  53.0552 178.7810 0001585  88.7638 271.3533 15.06414766133653","MEAN_MOTION_DDOT":"0.0000000000000","ECCENTRICITY":"0.00015850"},{"EPOCH":"2022-10-28T09:17:04.227936","ARG_OF_PERICENTER":"74.5271","MEAN_ANOMALY":"285.5872","NORAD_CAT_ID":"45668","EPHEMERIS_TYPE":"0","REV_AT_EPOCH":"13360","PERIOD":"95.591","CLASSIFICATION_TYPE":"U","MEAN_MOTION":"15.06415256","OBJECT_TYPE":"PAYLOAD","DECAY_DATE":null,"GP_ID":"216371899","BSTAR":"0.00036287000000","INCLINATION":"53.0540","PERIAPSIS":"546.201","ELEMENT_SET_NO":"999","RCS_SIZE":"LARGE","REF_FRAME":"TEME","OBJECT_ID":"2020-035M","ECCENTRICITY":"0.00013950","TLE_LINE2":"2 45668  53.0540 180.6951 0001395  74.5271 285.5872 15.06415256133607","MEAN_MOTION_DDOT":"0.0000000000000","SEMIMAJOR_AXIS":"6925.302","MEAN_ELEMENT_THEORY":"SGP4","OBJECT_NAME":"STARLINK-1451","CENTER_NAME":"EARTH","APOAPSIS":"548.133","RA_OF_ASC_NODE":"180.6951","MEAN_MOTION_DOT":"0.00005130","FILE":"3636776","TLE_LINE1":"1 45668U 20035M   22301.38685449  .00005130  00000-0  36287-3 0  9992","LAUNCH_DATE":"2020-06-04","TIME_SYSTEM":"UTC","SITE":"AFETR","COUNTRY_CODE":"US"},{"TIME_SYSTEM":"UTC","SITE":"AFETR","COUNTRY_CODE":"US","CENTER_NAME":"EARTH","SEMIMAJOR_AXIS":"6925.324","MEAN_ELEMENT_THEORY":"SGP4","OBJECT_NAME":"STARLINK-1452","LAUNCH_DATE":"2020-06-04","FILE":"3637111","TLE_LINE1":"1 45669U 20035N   22301.70109371  .00000613  00000-0  60043-4 0  9993","RA_OF_ASC_NODE":"179.2721","MEAN_MOTION_DOT":"0.00000613","APOAPSIS":"548.161","INCLINATION":"53.0533","BSTAR":"0.00006004300000","ELEMENT_SET_NO":"999","PERIAPSIS":"546.218","DECAY_DATE":null,"GP_ID":"216405649","TLE_LINE2":"2 45669  53.0533 179.2721 0001403  99.6145 260.5003 15.06407882133646","MEAN_MOTION_DDOT":"0.0000000000000","ECCENTRICITY":"0.00014030","REF_FRAME":"TEME","OBJECT_ID":"2020-035N","RCS_SIZE":"LARGE","EPHEMERIS_TYPE":"0","REV_AT_EPOCH":"13364","NORAD_CAT_ID":"45669","ARG_OF_PERICENTER":"99.6145","MEAN_ANOMALY":"260.5003","EPOCH":"2022-10-28T16:49:34.496544","OBJECT_TYPE":"PAYLOAD","CLASSIFICATION_TYPE":"U","MEAN_MOTION":"15.06407882","PERIOD":"95.592"},{"GP_ID":"216404899","DECAY_DATE":null,"ELEMENT_SET_NO":"999","PERIAPSIS":"546.262","INCLINATION":"53.0535","BSTAR":"0.00002326600000","RCS_SIZE":"LARGE","OBJECT_ID":"2020-035P","REF_FRAME":"TEME","ECCENTRICITY":"0.00013390","MEAN_MOTION_DDOT":"0.0000000000000","TLE_LINE2":"2 45670  53.0535 149.0220 0001339 116.9724 243.1402 15.06407826133966","EPOCH":"2022-10-28T18:13:10.447680","ARG_OF_PERICENTER":"116.9724","MEAN_ANOMALY":"243.1402","NORAD_CAT_ID":"45670","REV_AT_EPOCH":"13396","EPHEMERIS_TYPE":"0","PERIOD":"95.592","CLASSIFICATION_TYPE":"U","MEAN_MOTION":"15.06407826","OBJECT_TYPE":"PAYLOAD","SITE":"AFETR","TIME_SYSTEM":"UTC","COUNTRY_CODE":"US","MEAN_ELEMENT_THEORY":"SGP4","OBJECT_NAME":"STARLINK-1453","SEMIMAJOR_AXIS":"6925.325","CENTER_NAME":"EARTH","APOAPSIS":"548.117","MEAN_MOTION_DOT":"0.00000065","RA_OF_ASC_NODE":"149.0220","TLE_LINE1":"1 45670U 20035P   22301.75914870  .00000065  00000-0  23266-4 0  9995","FILE":"3637111","LAUNCH_DATE":"2020-06-04"},{"SITE":"AFETR","TIME_SYSTEM":"UTC","COUNTRY_CODE":"US","CENTER_NAME":"EARTH","OBJECT_NAME":"STARLINK-1454","MEAN_ELEMENT_THEORY":"SGP4","SEMIMAJOR_AXIS":"6925.345","LAUNCH_DATE":"2020-06-04","TLE_LINE1":"1 45671U 20035Q   22301.83748094  .00000324  00000-0  40651-4 0  9993","FILE":"3637111","MEAN_MOTION_DOT":"0.00000324","RA_OF_ASC_NODE":"178.6582","APOAPSIS":"548.277","PERIAPSIS":"546.143","ELEMENT_SET_NO":"999","BSTAR":"0.00004065100000","INCLINATION":"53.0547","DECAY_DATE":null,"GP_ID":"216405148","TLE_LINE2":"2 45671  53.0547 178.6582 0001541  86.3519 273.7647 15.06401154133650","MEAN_MOTION_DDOT":"0.0000000000000","ECCENTRICITY":"0.00015410","OBJECT_ID":"2020-035Q","REF_FRAME":"TEME","RCS_SIZE":"LARGE","REV_AT_EPOCH":"13365","EPHEMERIS_TYPE":"0","NORAD_CAT_ID":"45671","ARG_OF_PERICENTER":"86.3519","EPOCH":"2022-10-28T20:05:58.353216","MEAN_ANOMALY":"273.7647","OBJECT_TYPE":"PAYLOAD","MEAN_MOTION":"15.06401154","CLASSIFICATION_TYPE":"U","PERIOD":"95.592"}];
